[{"OBJECT_NAME":"NOAA 1","OBJECT_ID":"1970-106A","EPOCH":"2026-03-29T02:45:20.577600","MEAN_MOTION":12.5404953,"ECCENTRICITY":0.0032012,"INCLINATION":101.3471,"RA_OF_ASC_NODE":126.3225,"ARG_OF_PERICENTER":143.0609,"MEAN_ANOMALY":283.8301,"EPHEMERIS_TYPE":0,"CLASSIFICATION_TYPE":"U","NORAD_CAT_ID":4793,"ELEMENT_SET_NO":999,"REV_AT_EPOCH":53065,"BSTAR":7.6324e-5,"MEAN_MOTION_DOT":-3.0e-7,"MEAN_MOTION_DDOT":0},{"OBJECT_NAME":"NOAA 2 (ITOS-D)","OBJECT_ID":"1972-082A","EPOCH":"2026-03-29T01:06:02.577024","MEAN_MOTION":12.53212462,"ECCENTRICITY":0.0003777,"INCLINATION":102.0148,"RA_OF_ASC_NODE":105.7224,"ARG_OF_PERICENTER":326.8428,"MEAN_ANOMALY":53.92,"EPHEMERIS_TYPE":0,"CLASSIFICATION_TYPE":"U","NORAD_CAT_ID":6235,"ELEMENT_SET_NO":999,"REV_AT_EPOCH":44491,"BSTAR":0.00017109,"MEAN_MOTION_DOT":-1.9e-7,"MEAN_MOTION_DDOT":0},{"OBJECT_NAME":"NOAA 3","OBJECT_ID":"1973-086A","EPOCH":"2026-03-28T22:45:35.793216","MEAN_MOTION":12.40392287,"ECCENTRICITY":0.0006174,"INCLINATION":102.2895,"RA_OF_ASC_NODE":101.1145,"ARG_OF_PERICENTER":272.1688,"MEAN_ANOMALY":152.6335,"EPHEMERIS_TYPE":0,"CLASSIFICATION_TYPE":"U","NORAD_CAT_ID":6920,"ELEMENT_SET_NO":999,"REV_AT_EPOCH":37195,"BSTAR":0.00021919,"MEAN_MOTION_DOT":-1.7e-7,"MEAN_MOTION_DDOT":0},{"OBJECT_NAME":"NOAA 4","OBJECT_ID":"1974-089A","EPOCH":"2026-03-29T00:37:14.292768","MEAN_MOTION":12.53202086,"ECCENTRICITY":0.0008907,"INCLINATION":102.0063,"RA_OF_ASC_NODE":99.9646,"ARG_OF_PERICENTER":352.1261,"MEAN_ANOMALY":29.5064,"EPHEMERIS_TYPE":0,"CLASSIFICATION_TYPE":"U","NORAD_CAT_ID":7529,"ELEMENT_SET_NO":999,"REV_AT_EPOCH":34948,"BSTAR":0.00015971,"MEAN_MOTION_DOT":-2.1e-7,"MEAN_MOTION_DDOT":0},{"OBJECT_NAME":"NOAA 5","OBJECT_ID":"1976-077A","EPOCH":"2026-03-29T05:25:05.812608","MEAN_MOTION":12.37829088,"ECCENTRICITY":0.001002,"INCLINATION":102.2985,"RA_OF_ASC_NODE":73.8376,"ARG_OF_PERICENTER":124.89,"MEAN_ANOMALY":246.1278,"EPHEMERIS_TYPE":0,"CLASSIFICATION_TYPE":"U","NORAD_CAT_ID":9057,"ELEMENT_SET_NO":999,"REV_AT_EPOCH":24458,"BSTAR":0.00021235,"MEAN_MOTION_DOT":-1.8e-7,"MEAN_MOTION_DDOT":0},{"OBJECT_NAME":"TIROS N","OBJECT_ID":"1978-096A","EPOCH":"2026-03-29T01:21:46.173888","MEAN_MOTION":14.19346874,"ECCENTRICITY":0.0011552,"INCLINATION":98.4609,"RA_OF_ASC_NODE":112.7158,"ARG_OF_PERICENTER":112.9495,"MEAN_ANOMALY":247.2902,"EPHEMERIS_TYPE":0,"CLASSIFICATION_TYPE":"U","NORAD_CAT_ID":11060,"ELEMENT_SET_NO":999,"REV_AT_EPOCH":66738,"BSTAR":0.00010613,"MEAN_MOTION_DOT":1.82e-6,"MEAN_MOTION_DDOT":0},{"OBJECT_NAME":"NOAA 6","OBJECT_ID":"1979-057A","EPOCH":"2026-03-29T01:39:21.338208","MEAN_MOTION":14.35447708,"ECCENTRICITY":0.0010765,"INCLINATION":98.5721,"RA_OF_ASC_NODE":118.1029,"ARG_OF_PERICENTER":131.7954,"MEAN_ANOMALY":228.4152,"EPHEMERIS_TYPE":0,"CLASSIFICATION_TYPE":"U","NORAD_CAT_ID":11416,"ELEMENT_SET_NO":999,"REV_AT_EPOCH":43946,"BSTAR":0.0001334,"MEAN_MOTION_DOT":3.39e-6,"MEAN_MOTION_DDOT":0},{"OBJECT_NAME":"NOAA 7","OBJECT_ID":"1981-059A","EPOCH":"2026-03-29T03:20:29.698368","MEAN_MOTION":14.1777732,"ECCENTRICITY":0.0012265,"INCLINATION":98.8022,"RA_OF_ASC_NODE":156.0219,"ARG_OF_PERICENTER":134.0361,"MEAN_ANOMALY":226.1826,"EPHEMERIS_TYPE":0,"CLASSIFICATION_TYPE":"U","NORAD_CAT_ID":12553,"ELEMENT_SET_NO":999,"REV_AT_EPOCH":31340,"BSTAR":5.0058e-5,"MEAN_MOTION_DOT":5.8e-7,"MEAN_MOTION_DDOT":0},{"OBJECT_NAME":"NOAA 8","OBJECT_ID":"1983-022A","EPOCH":"2026-03-28T22:32:21.178464","MEAN_MOTION":14.2977422,"ECCENTRICITY":0.001564,"INCLINATION":98.7364,"RA_OF_ASC_NODE":100.8002,"ARG_OF_PERICENTER":130.7266,"MEAN_ANOMALY":229.5277,"EPHEMERIS_TYPE":0,"CLASSIFICATION_TYPE":"U","NORAD_CAT_ID":13923,"ELEMENT_SET_NO":999,"REV_AT_EPOCH":23960,"BSTAR":8.3579e-5,"MEAN_MOTION_DOT":1.7e-6,"MEAN_MOTION_DDOT":0},{"OBJECT_NAME":"NOAA 9","OBJECT_ID":"1984-123A","EPOCH":"2026-03-29T01:30:25.689312","MEAN_MOTION":14.17045254,"ECCENTRICITY":0.0014115,"INCLINATION":99.1073,"RA_OF_ASC_NODE":112.8165,"ARG_OF_PERICENTER":213.501,"MEAN_ANOMALY":205.1188,"EPHEMERIS_TYPE":0,"CLASSIFICATION_TYPE":"U","NORAD_CAT_ID":15427,"ELEMENT_SET_NO":999,"REV_AT_EPOCH":13207,"BSTAR":8.2306e-5,"MEAN_MOTION_DOT":1.19e-6,"MEAN_MOTION_DDOT":0},{"OBJECT_NAME":"NOAA 10","OBJECT_ID":"1986-073A","EPOCH":"2026-03-29T04:58:31.452672","MEAN_MOTION":14.29152076,"ECCENTRICITY":0.0011181,"INCLINATION":98.7017,"RA_OF_ASC_NODE":81.5641,"ARG_OF_PERICENTER":226.606,"MEAN_ANOMALY":144.9573,"EPHEMERIS_TYPE":0,"CLASSIFICATION_TYPE":"U","NORAD_CAT_ID":16969,"ELEMENT_SET_NO":999,"REV_AT_EPOCH":5799,"BSTAR":8.836e-5,"MEAN_MOTION_DOT":1.8e-6,"MEAN_MOTION_DDOT":0},{"OBJECT_NAME":"NOAA 11","OBJECT_ID":"1988-089A","EPOCH":"2026-03-29T01:54:27.480672","MEAN_MOTION":14.15825111,"ECCENTRICITY":0.001129,"INCLINATION":98.6126,"RA_OF_ASC_NODE":36.4696,"ARG_OF_PERICENTER":162.5345,"MEAN_ANOMALY":197.622,"EPHEMERIS_TYPE":0,"CLASSIFICATION_TYPE":"U","NORAD_CAT_ID":19531,"ELEMENT_SET_NO":999,"REV_AT_EPOCH":93614,"BSTAR":5.0382e-5,"MEAN_MOTION_DOT":5.7e-7,"MEAN_MOTION_DDOT":0},{"OBJECT_NAME":"NOAA 12","OBJECT_ID":"1991-032A","EPOCH":"2026-03-29T02:37:41.430720","MEAN_MOTION":14.26723722,"ECCENTRICITY":0.0012483,"INCLINATION":98.6173,"RA_OF_ASC_NODE":77.8112,"ARG_OF_PERICENTER":261.9527,"MEAN_ANOMALY":98.0237,"EPHEMERIS_TYPE":0,"CLASSIFICATION_TYPE":"U","NORAD_CAT_ID":21263,"ELEMENT_SET_NO":999,"REV_AT_EPOCH":81354,"BSTAR":7.5808e-5,"MEAN_MOTION_DOT":1.4e-6,"MEAN_MOTION_DDOT":0},{"OBJECT_NAME":"NOAA 13","OBJECT_ID":"1993-050A","EPOCH":"2026-03-29T02:44:04.538688","MEAN_MOTION":14.13642657,"ECCENTRICITY":0.0009587,"INCLINATION":98.6963,"RA_OF_ASC_NODE":35.3224,"ARG_OF_PERICENTER":5.1611,"MEAN_ANOMALY":354.9659,"EPHEMERIS_TYPE":0,"CLASSIFICATION_TYPE":"U","NORAD_CAT_ID":22739,"ELEMENT_SET_NO":999,"REV_AT_EPOCH":68206,"BSTAR":8.487e-5,"MEAN_MOTION_DOT":1.17e-6,"MEAN_MOTION_DDOT":0},{"OBJECT_NAME":"NOAA 14","OBJECT_ID":"1994-089A","EPOCH":"2026-03-29T03:10:33.618720","MEAN_MOTION":14.14659683,"ECCENTRICITY":0.000871,"INCLINATION":98.5054,"RA_OF_ASC_NODE":61.428,"ARG_OF_PERICENTER":319.5569,"MEAN_ANOMALY":40.4957,"EPHEMERIS_TYPE":0,"CLASSIFICATION_TYPE":"U","NORAD_CAT_ID":23455,"ELEMENT_SET_NO":999,"REV_AT_EPOCH":61188,"BSTAR":6.6984e-5,"MEAN_MOTION_DOT":8.7e-7,"MEAN_MOTION_DDOT":0},{"OBJECT_NAME":"NOAA 15","OBJECT_ID":"1998-030A","EPOCH":"2026-03-29T02:52:08.872896","MEAN_MOTION":14.27120352,"ECCENTRICITY":0.0009533,"INCLINATION":98.5139,"RA_OF_ASC_NODE":110.8918,"ARG_OF_PERICENTER":216.7423,"MEAN_ANOMALY":143.3106,"EPHEMERIS_TYPE":0,"CLASSIFICATION_TYPE":"U","NORAD_CAT_ID":25338,"ELEMENT_SET_NO":999,"REV_AT_EPOCH":44987,"BSTAR":9.466e-5,"MEAN_MOTION_DOT":1.88e-6,"MEAN_MOTION_DDOT":0},{"OBJECT_NAME":"NOAA 16","OBJECT_ID":"2000-055A","EPOCH":"2026-03-29T03:06:35.621280","MEAN_MOTION":14.13903614,"ECCENTRICITY":0.001069,"INCLINATION":98.4685,"RA_OF_ASC_NODE":106.6182,"ARG_OF_PERICENTER":165.1018,"MEAN_ANOMALY":195.0473,"EPHEMERIS_TYPE":0,"CLASSIFICATION_TYPE":"U","NORAD_CAT_ID":26536,"ELEMENT_SET_NO":999,"REV_AT_EPOCH":61241,"BSTAR":9.354e-5,"MEAN_MOTION_DOT":1.37e-6,"MEAN_MOTION_DDOT":0}]
